{
    "week": 287,
    "satellites": [
        {
            "Name": "COSMOS 2485 (747)",
            "Line1": "1 39155U 13019A   24284.18347888  .00000077  00000+0  00000+0 0  9996",
            "Line2": "2 39155  65.0955  94.2976 0022395 226.3685 133.4800  2.13101776 89177",
            "SatelliteNumber": "39155",
            "Classification": "U",
            "LaunchYear": "13",
            "LaunchNumber": "019",
            "PieceOfLaunch": "A",
            "EpochYear": "24",
            "EpochDay": 284.18347888,
            "FirstDerivativeMeanMotion": 7.7e-07,
            "SecondDerivativeMeanMotion": "00000+0",
            "BSTAR": "00000+0",
            "SetNumber": "999",
            "Inclination": 65.0955,
            "RAAN": 94.2976,
            "Eccentricity": 0.0022395,
            "ArgumentOfPerigee": 226.3685,
            "MeanAnomaly": 133.48,
            "MeanMotion": 2.13101776,
            "RevolutionNumber": "8917"
        },
        {
            "Name": "COSMOS 2492 (754)",
            "Line1": "1 39620U 14012A   24284.60795715 -.00000033  00000+0  00000+0 0  9993",
            "Line2": "2 39620  65.6234 334.7460 0012932 308.8320  51.1237  2.13103141 82146",
            "SatelliteNumber": "39620",
            "Classification": "U",
            "LaunchYear": "14",
            "LaunchNumber": "012",
            "PieceOfLaunch": "A",
            "EpochYear": "24",
            "EpochDay": 284.60795715,
            "FirstDerivativeMeanMotion": -3.3e-07,
            "SecondDerivativeMeanMotion": "00000+0",
            "BSTAR": "00000+0",
            "SetNumber": "999",
            "Inclination": 65.6234,
            "RAAN": 334.746,
            "Eccentricity": 0.0012932,
            "ArgumentOfPerigee": 308.832,
            "MeanAnomaly": 51.1237,
            "MeanMotion": 2.13103141,
            "RevolutionNumber": "8214"
        },
        {
            "Name": "COSMOS 2500 (755)",
            "Line1": "1 40001U 14032A   24285.25505405 -.00000030  00000+0  00000+0 0  9994",
            "Line2": "2 40001  65.5602 334.5202 0008957 211.9659 148.0509  2.13106038 80371",
            "SatelliteNumber": "40001",
            "Classification": "U",
            "LaunchYear": "14",
            "LaunchNumber": "032",
            "PieceOfLaunch": "A",
            "EpochYear": "24",
            "EpochDay": 285.25505405,
            "FirstDerivativeMeanMotion": -3e-07,
            "SecondDerivativeMeanMotion": "00000+0",
            "BSTAR": "00000+0",
            "SetNumber": "999",
            "Inclination": 65.5602,
            "RAAN": 334.5202,
            "Eccentricity": 0.0008957,
            "ArgumentOfPerigee": 211.9659,
            "MeanAnomaly": 148.0509,
            "MeanMotion": 2.13106038,
            "RevolutionNumber": "8037"
        },
        {
            "Name": "COSMOS 2501 (702K)",
            "Line1": "1 40315U 14075A   24285.04022243  .00000012  00000+0  00000+0 0  9999",
            "Line2": "2 40315  63.6191 211.6511 0020046 208.7052 151.2024  2.13101348 76768",
            "SatelliteNumber": "40315",
            "Classification": "U",
            "LaunchYear": "14",
            "LaunchNumber": "075",
            "PieceOfLaunch": "A",
            "EpochYear": "24",
            "EpochDay": 285.04022243,
            "FirstDerivativeMeanMotion": 1.2e-07,
            "SecondDerivativeMeanMotion": "00000+0",
            "BSTAR": "00000+0",
            "SetNumber": "999",
            "Inclination": 63.6191,
            "RAAN": 211.6511,
            "Eccentricity": 0.0020046,
            "ArgumentOfPerigee": 208.7052,
            "MeanAnomaly": 151.2024,
            "MeanMotion": 2.13101348,
            "RevolutionNumber": "7676"
        },
        {
            "Name": "COSMOS 2514 (751)",
            "Line1": "1 41330U 16008A   24284.55384318 -.00000032  00000+0  00000+0 0  9997",
            "Line2": "2 41330  65.3543 334.0241 0013003 215.2713 144.7132  2.13102726 67520",
            "SatelliteNumber": "41330",
            "Classification": "U",
            "LaunchYear": "16",
            "LaunchNumber": "008",
            "PieceOfLaunch": "A",
            "EpochYear": "24",
            "EpochDay": 284.55384318,
            "FirstDerivativeMeanMotion": -3.2e-07,
            "SecondDerivativeMeanMotion": "00000+0",
            "BSTAR": "00000+0",
            "SetNumber": "999",
            "Inclination": 65.3543,
            "RAAN": 334.0241,
            "Eccentricity": 0.0013003,
            "ArgumentOfPerigee": 215.2713,
            "MeanAnomaly": 144.7132,
            "MeanMotion": 2.13102726,
            "RevolutionNumber": "6752"
        },
        {
            "Name": "COSMOS 2522 (752)",
            "Line1": "1 42939U 17055A   24285.33218593  .00000011  00000+0  00000+0 0  9990",
            "Line2": "2 42939  64.0803 212.7982 0008348 238.9487 120.9850  2.13101947 54894",
            "SatelliteNumber": "42939",
            "Classification": "U",
            "LaunchYear": "17",
            "LaunchNumber": "055",
            "PieceOfLaunch": "A",
            "EpochYear": "24",
            "EpochDay": 285.33218593,
            "FirstDerivativeMeanMotion": 1.1e-07,
            "SecondDerivativeMeanMotion": "00000+0",
            "BSTAR": "00000+0",
            "SetNumber": "999",
            "Inclination": 64.0803,
            "RAAN": 212.7982,
            "Eccentricity": 0.0008348,
            "ArgumentOfPerigee": 238.9487,
            "MeanAnomaly": 120.985,
            "MeanMotion": 2.13101947,
            "RevolutionNumber": "5489"
        },
        {
            "Name": "COSMOS 2527 (756)",
            "Line1": "1 43508U 18053A   24284.82238044  .00000082  00000+0  00000+0 0  9996",
            "Line2": "2 43508  65.2557  94.4519 0007606 213.4997 146.4881  2.13102293 49185",
            "SatelliteNumber": "43508",
            "Classification": "U",
            "LaunchYear": "18",
            "LaunchNumber": "053",
            "PieceOfLaunch": "A",
            "EpochYear": "24",
            "EpochDay": 284.82238044,
            "FirstDerivativeMeanMotion": 8.2e-07,
            "SecondDerivativeMeanMotion": "00000+0",
            "BSTAR": "00000+0",
            "SetNumber": "999",
            "Inclination": 65.2557,
            "RAAN": 94.4519,
            "Eccentricity": 0.0007606,
            "ArgumentOfPerigee": 213.4997,
            "MeanAnomaly": 146.4881,
            "MeanMotion": 2.13102293,
            "RevolutionNumber": "4918"
        },
        {
            "Name": "COSMOS 2529 (757)",
            "Line1": "1 43687U 18086A   24283.04398085  .00000028  00000+0  00000+0 0  9995",
            "Line2": "2 43687  64.2962 213.4196 0009818 260.6785  99.2286  2.13101993 46156",
            "SatelliteNumber": "43687",
            "Classification": "U",
            "LaunchYear": "18",
            "LaunchNumber": "086",
            "PieceOfLaunch": "A",
            "EpochYear": "24",
            "EpochDay": 283.04398085,
            "FirstDerivativeMeanMotion": 2.8e-07,
            "SecondDerivativeMeanMotion": "00000+0",
            "BSTAR": "00000+0",
            "SetNumber": "999",
            "Inclination": 64.2962,
            "RAAN": 213.4196,
            "Eccentricity": 0.0009818,
            "ArgumentOfPerigee": 260.6785,
            "MeanAnomaly": 99.2286,
            "MeanMotion": 2.13101993,
            "RevolutionNumber": "4615"
        },
        {
            "Name": "COSMOS 2534 (758)",
            "Line1": "1 44299U 19030A   24285.44747876  .00000010  00000+0  00000+0 0  9998",
            "Line2": "2 44299  64.3692 213.3025 0011731 282.7006 255.3301  2.13101940 41830",
            "SatelliteNumber": "44299",
            "Classification": "U",
            "LaunchYear": "19",
            "LaunchNumber": "030",
            "PieceOfLaunch": "A",
            "EpochYear": "24",
            "EpochDay": 285.44747876,
            "FirstDerivativeMeanMotion": 1e-07,
            "SecondDerivativeMeanMotion": "00000+0",
            "BSTAR": "00000+0",
            "SetNumber": "999",
            "Inclination": 64.3692,
            "RAAN": 213.3025,
            "Eccentricity": 0.0011731,
            "ArgumentOfPerigee": 282.7006,
            "MeanAnomaly": 255.3301,
            "MeanMotion": 2.1310194,
            "RevolutionNumber": "4183"
        },
        {
            "Name": "COSMOS 2544 (759)",
            "Line1": "1 44850U 19088A   24283.35873685  .00000070  00000+0  00000+0 0  9996",
            "Line2": "2 44850  65.2420  94.3357 0011571 246.7818 113.1290  2.13102056 37595",
            "SatelliteNumber": "44850",
            "Classification": "U",
            "LaunchYear": "19",
            "LaunchNumber": "088",
            "PieceOfLaunch": "A",
            "EpochYear": "24",
            "EpochDay": 283.35873685,
            "FirstDerivativeMeanMotion": 7e-07,
            "SecondDerivativeMeanMotion": "00000+0",
            "BSTAR": "00000+0",
            "SetNumber": "999",
            "Inclination": 65.242,
            "RAAN": 94.3357,
            "Eccentricity": 0.0011571,
            "ArgumentOfPerigee": 246.7818,
            "MeanAnomaly": 113.129,
            "MeanMotion": 2.13102056,
            "RevolutionNumber": "3759"
        }
    ]
}